stk.v.4.3 

BEGIN Ephemeris 
 
NumberOfEphemerisPoints		146 
ScenarioEpoch	    1 Sep 2020 12: 3:59.775565267 
InterpolationMethod		Lagrange 
InterpolationOrder		5 
CentralBody				Earth 
CoordinateSystem			TEME 
CoordinateSystemEpoch	  1 Sep 2020 12: 3:59.775565267 
DistanceUnit			Kilometers 
 
EphemerisTimePosVel 
 
       0.00000000   -2191.55335227   -6783.40575088       0.03512152  0.443995530 -0.133126907  7.465040327
 END Ephemeris 
